OBJECT_NAME,OBJECT_ID,EPOCH,MEAN_MOTION,ECCENTRICITY,INCLINATION,RA_OF_ASC_NODE,ARG_OF_PERICENTER,MEAN_ANOMALY,EPHEMERIS_TYPE,CLASSIFICATION_TYPE,NORAD_CAT_ID,ELEMENT_SET_NO,REV_AT_EPOCH,BSTAR,MEAN_MOTION_DOT,MEAN_MOTION_DDOT
IRIDIUM 154,2018-061F,2026-07-12T23:25:42.406464,14.34217677,.00022896,86.3939,46.0199,90.2033,269.9426,0,U,43574,999,41710,.38744629E-4,.128E-5,0
IRIDIUM 163,2018-061G,2026-07-13T00:38:46.419360,14.34217630,.0002152,86.3937,45.9131,85.5925,274.5517,0,U,43575,999,41708,.31282612E-4,.107E-5,0
IRIDIUM 156,2018-061H,2026-07-13T00:02:14.475552,14.34217488,.00020753,86.3936,45.9308,91.5811,268.5623,0,U,43576,999,41707,.1431614E-4,.6E-6,0
IRIDIUM 164,2018-061J,2026-07-12T16:52:58.648512,14.34217636,.00023094,86.3939,46.0967,89.1970,270.9490,0,U,43577,999,41707,.46176956E-4,.149E-5,0
IRIDIUM 159,2018-061K,2026-07-13T00:29:38.417856,14.34217158,.00020353,86.3935,45.9002,84.9102,275.2326,0,U,43578,999,41708,-.299322E-6,.19E-6,0
IRIDIUM 180,2019-002A,2026-07-12T21:07:59.051712,14.34217781,.00022427,86.3991,342.8564,90.9268,269.2185,0,U,43922,999,39267,.24919622E-4,.9E-6,0
IRIDIUM 176,2019-002B,2026-07-12T23:41:01.415616,14.72247469,.00023405,86.6108,342.7517,89.6789,270.4696,0,U,43923,999,40304,.63038713E-4,.422E-5,0
IRIDIUM 168,2019-002C,2026-07-10T08:42:02.613600,14.34217872,.00022436,86.3988,343.9865,90.7210,269.4243,0,U,43924,999,39229,.8973003E-5,.45E-6,0
IRIDIUM 173,2019-002D,2026-07-12T22:21:02.900448,14.34216730,.00020314,86.3986,342.8012,91.5170,268.6259,0,U,43925,999,39264,-.42375706E-4,-.99E-6,0
IRIDIUM 169,2019-002E,2026-07-12T23:42:29.668896,14.38613062,.00018198,86.4220,14.4030,101.7059,258.4344,0,U,43926,999,39393,.433624E-5,.33E-6,0
IRIDIUM 172,2019-002F,2026-07-12T22:11:54.981024,14.34217689,.00021631,86.3985,342.8115,90.1447,269.9997,0,U,43927,999,39265,.1624673E-4,.65E-6,0
IRIDIUM 175,2019-002G,2026-07-13T04:47:15.640512,14.43626590,.00052277,86.4512,279.6484,119.2126,240.9599,0,U,43928,999,40273,.46764787E-4,.179E-5,0
IRIDIUM 171,2019-002H,2026-07-13T07:47:18.956544,14.34217584,.00022125,86.3996,342.9535,95.0243,265.1205,0,U,43929,999,39270,.9089252E-5,.45E-6,0
IRIDIUM 170,2019-002J,2026-07-13T07:59:16.725408,14.72248259,.00022899,86.6108,342.6093,86.0720,274.0759,0,U,43930,999,40310,.62727574E-4,.42E-5,0
IRIDIUM 167,2019-002K,2026-07-12T21:35:22.942176,14.34217708,.00022447,86.3989,342.8447,98.9006,261.2444,0,U,43931,999,39264,.12725648E-4,.55E-6,0
IRIDIUM 181,2023-068S,2026-07-13T02:31:09.801120,14.43311568,.00024089,86.4476,45.9523,83.8620,276.2855,0,U,56726,999,16617,.49032505E-4,.185E-5,0
IRIDIUM 177,2023-068T,2026-07-13T06:48:50.726016,14.80028689,.00021432,86.1984,316.4011,94.1105,266.0361,0,U,56727,999,17022,.72540447E-4,.575E-5,0
IRIDIUM 174,2023-068U,2026-07-12T21:54:08.202816,14.72256531,.00020165,86.6116,342.9348,85.8663,274.2785,0,U,56728,999,16980,.65398477E-4,.437E-5,0
IRIDIUM 178,2023-068V,2026-07-12T22:26:11.541120,14.80025518,.00023162,86.6533,14.5979,90.4858,269.6629,0,U,56729,999,17017,.22962244E-4,.2E-5,0
IRIDIUM 179,2023-068W,2026-07-12T23:55:51.320064,14.80033440,.00022901,86.6765,23.6288,89.3359,270.8125,0,U,56730,999,17018,.63504053E-4,.506E-5,0
